format  = 'OEF2.0'       ! file format
rectype = 'ML'           ! record type (1L/ML)
refsys  = ECLM J2000     ! default reference system
END_OF_HEADER
433
! Keplerian elements: a, e, i, long. node, arg. peric., mean anomaly
 KEP   1.4581209994286828E+00  2.2283595113571669E-01  10.8284725705595 304.2700965525480 178.9297644169892  3.1055432263314339E+02
 MJD     61000.000000000 TDT
 MAG  10.819  0.460
! Non-gravitational parameters: model used, number of model parameters, dimension
 LSP   0  0    6
! PERIHELION   1.1331992196500305E+00
! APHELION   1.7830427792073351E+00
! ANODE   7.6620793529541509E-01
! DNODE   1.4836476388272607E-01
! MOID   1.4835313871598046E-01
! PERIOD   6.4311519928585324E+02
! PHA F
! VINFTY     1.2557728806582
! U_PAR 0.0
! ORB_TYPE Amor  
! RMS    2.15777E-10   9.29615E-09   1.61464E-06   7.92471E-06   8.63890E-06   2.24190E-06
 COV   4.655960138119373E-20  1.036905302458438E-20 -1.076750606008213E-17
 COV  -1.416748449123888E-16  1.539966342823686E-16 -1.429925636159687E-16
 COV   8.641831900154084E-17  1.199970938796263E-15  1.136787759877299E-14
 COV  -8.063614141819143E-15  2.677682872335327E-15  2.607049408990956E-12
 COV   7.466662774140361E-13 -5.164857837202361E-13 -5.413677278878233E-14
 COV   6.280107589851721E-11 -6.302229386499588E-11  2.950024181746076E-12
 COV   7.463056099071845E-11 -9.839207333824661E-12  5.026101150690924E-12
 COR   1.000000000000000E+00  5.169297909424154E-03 -3.090550661569727E-02
 COR  -8.285230154483242E-02  8.261297258859457E-02 -2.955923657686030E-01
 COR   1.000000000000000E+00  7.994534668746930E-02  1.543095979179639E-01
 COR  -1.004080372398902E-01  1.284815068015852E-01  1.000000000000000E+00
 COR   5.835369541032223E-02 -3.702758503239682E-02 -1.495554072116199E-02
 COR   9.999999999999999E-01 -9.205604477252454E-01  1.660452367152801E-01
 COR   1.000000000000000E+00 -5.080262426764669E-01  9.999999999999999E-01
